CCSDS_OMM_VERS = 2.0
CREATION_DATE  = 
ORIGINATOR     = 

OBJECT_NAME    = NASBSAT-2
OBJECT_ID      = 2025-313AP
CENTER_NAME    = EARTH
REF_FRAME      = TEME
TIME_SYSTEM    = UTC
MEAN_ELEMENT_THEORY = SGP/SGP4

EPOCH          = 2026-01-13T20:38:26.070144
MEAN_MOTION    = 15.21223328
ECCENTRICITY   = .0010807
INCLINATION    = 97.4095
RA_OF_ASC_NODE = 91.0544
ARG_OF_PERICENTER = 175.4250
MEAN_ANOMALY   = 184.7087

EPHEMERIS_TYPE = 0
CLASSIFICATION_TYPE = U
NORAD_CAT_ID   = 67285
ELEMENT_SET_NO = 999
REV_AT_EPOCH   = 248
BSTAR          = .22450448E-3
MEAN_MOTION_DOT = .4949E-4
MEAN_MOTION_DDOT = 0

CCSDS_OMM_VERS = 2.0
CREATION_DATE  = 
ORIGINATOR     = 

OBJECT_NAME    = 2025-313AQ
OBJECT_ID      = 2025-313AQ
CENTER_NAME    = EARTH
REF_FRAME      = TEME
TIME_SYSTEM    = UTC
MEAN_ELEMENT_THEORY = SGP/SGP4

EPOCH          = 2026-01-13T20:37:40.997856
MEAN_MOTION    = 15.21254666
ECCENTRICITY   = .0010517
INCLINATION    = 97.4117
RA_OF_ASC_NODE = 91.0683
ARG_OF_PERICENTER = 171.5307
MEAN_ANOMALY   = 188.6109

EPHEMERIS_TYPE = 0
CLASSIFICATION_TYPE = U
NORAD_CAT_ID   = 67286
ELEMENT_SET_NO = 999
REV_AT_EPOCH   = 248
BSTAR          = .20002089E-3
MEAN_MOTION_DOT = .4405E-4
MEAN_MOTION_DDOT = 0

CCSDS_OMM_VERS = 2.0
CREATION_DATE  = 
ORIGINATOR     = 

OBJECT_NAME    = LUCA
OBJECT_ID      = 2025-313AR
CENTER_NAME    = EARTH
REF_FRAME      = TEME
TIME_SYSTEM    = UTC
MEAN_ELEMENT_THEORY = SGP/SGP4

EPOCH          = 2026-01-13T20:36:55.347552
MEAN_MOTION    = 15.21341509
ECCENTRICITY   = .00104189
INCLINATION    = 97.4117
RA_OF_ASC_NODE = 91.0694
ARG_OF_PERICENTER = 172.0522
MEAN_ANOMALY   = 188.0881

EPHEMERIS_TYPE = 0
CLASSIFICATION_TYPE = U
NORAD_CAT_ID   = 67287
ELEMENT_SET_NO = 999
REV_AT_EPOCH   = 248
BSTAR          = .24352221E-3
MEAN_MOTION_DOT = .5392E-4
MEAN_MOTION_DDOT = 0

CCSDS_OMM_VERS = 2.0
CREATION_DATE  = 
ORIGINATOR     = 

OBJECT_NAME    = 2025-313AS
OBJECT_ID      = 2025-313AS
CENTER_NAME    = EARTH
REF_FRAME      = TEME
TIME_SYSTEM    = UTC
MEAN_ELEMENT_THEORY = SGP/SGP4

EPOCH          = 2026-01-13T20:37:55.896672
MEAN_MOTION    = 15.21206068
ECCENTRICITY   = .00122633
INCLINATION    = 97.4104
RA_OF_ASC_NODE = 91.0649
ARG_OF_PERICENTER = 164.9426
MEAN_ANOMALY   = 195.2177

EPHEMERIS_TYPE = 0
CLASSIFICATION_TYPE = U
NORAD_CAT_ID   = 67288
ELEMENT_SET_NO = 999
REV_AT_EPOCH   = 248
BSTAR          = .165441E-3
MEAN_MOTION_DOT = .3628E-4
MEAN_MOTION_DDOT = 0

CCSDS_OMM_VERS = 2.0
CREATION_DATE  = 
ORIGINATOR     = 

OBJECT_NAME    = NASBSAT-1
OBJECT_ID      = 2025-313AT
CENTER_NAME    = EARTH
REF_FRAME      = TEME
TIME_SYSTEM    = UTC
MEAN_ELEMENT_THEORY = SGP/SGP4

EPOCH          = 2026-01-13T20:35:36.445344
MEAN_MOTION    = 15.21491026
ECCENTRICITY   = .00103192
INCLINATION    = 97.4118
RA_OF_ASC_NODE = 91.0710
ARG_OF_PERICENTER = 172.4553
MEAN_ANOMALY   = 187.6840

EPHEMERIS_TYPE = 0
CLASSIFICATION_TYPE = U
NORAD_CAT_ID   = 67289
ELEMENT_SET_NO = 999
REV_AT_EPOCH   = 248
BSTAR          = .34280624E-3
MEAN_MOTION_DOT = .7654E-4
MEAN_MOTION_DDOT = 0

CCSDS_OMM_VERS = 2.0
CREATION_DATE  = 
ORIGINATOR     = 

OBJECT_NAME    = SAKHACUBE-CHOLBON (RS-18S)
OBJECT_ID      = 2025-313AU
CENTER_NAME    = EARTH
REF_FRAME      = TEME
TIME_SYSTEM    = UTC
MEAN_ELEMENT_THEORY = SGP/SGP4

EPOCH          = 2026-01-13T20:35:45.590784
MEAN_MOTION    = 15.21429849
ECCENTRICITY   = .00101619
INCLINATION    = 97.4117
RA_OF_ASC_NODE = 91.0707
ARG_OF_PERICENTER = 171.3820
MEAN_ANOMALY   = 188.7592

EPHEMERIS_TYPE = 0
CLASSIFICATION_TYPE = U
NORAD_CAT_ID   = 67290
ELEMENT_SET_NO = 999
REV_AT_EPOCH   = 248
BSTAR          = .25890727E-3
MEAN_MOTION_DOT = .5752E-4
MEAN_MOTION_DDOT = 0

CCSDS_OMM_VERS = 2.0
CREATION_DATE  = 
ORIGINATOR     = 

OBJECT_NAME    = QMR-KWT-2
OBJECT_ID      = 2025-313AV
CENTER_NAME    = EARTH
REF_FRAME      = TEME
TIME_SYSTEM    = UTC
MEAN_ELEMENT_THEORY = SGP/SGP4

EPOCH          = 2026-01-13T20:35:11.404032
MEAN_MOTION    = 15.21488027
ECCENTRICITY   = .00100552
INCLINATION    = 97.4116
RA_OF_ASC_NODE = 91.0712
ARG_OF_PERICENTER = 171.3974
MEAN_ANOMALY   = 188.7436

EPHEMERIS_TYPE = 0
CLASSIFICATION_TYPE = U
NORAD_CAT_ID   = 67291
ELEMENT_SET_NO = 999
REV_AT_EPOCH   = 248
BSTAR          = .28451476E-3
MEAN_MOTION_DOT = .6339E-4
MEAN_MOTION_DDOT = 0

CCSDS_OMM_VERS = 2.0
CREATION_DATE  = 
ORIGINATOR     = 

OBJECT_NAME    = SITRO-AIS-64
OBJECT_ID      = 2025-313AW
CENTER_NAME    = EARTH
REF_FRAME      = TEME
TIME_SYSTEM    = UTC
MEAN_ELEMENT_THEORY = SGP/SGP4

EPOCH          = 2026-01-13T17:24:55.995840
MEAN_MOTION    = 15.21523767
ECCENTRICITY   = .00098163
INCLINATION    = 97.4120
RA_OF_ASC_NODE = 90.9436
ARG_OF_PERICENTER = 171.5185
MEAN_ANOMALY   = 188.6219

EPHEMERIS_TYPE = 0
CLASSIFICATION_TYPE = U
NORAD_CAT_ID   = 67292
ELEMENT_SET_NO = 999
REV_AT_EPOCH   = 246
BSTAR          = .28528759E-3
MEAN_MOTION_DOT = .6363E-4
MEAN_MOTION_DDOT = 0

CCSDS_OMM_VERS = 2.0
CREATION_DATE  = 
ORIGINATOR     = 

OBJECT_NAME    = 2025-313AX
OBJECT_ID      = 2025-313AX
CENTER_NAME    = EARTH
REF_FRAME      = TEME
TIME_SYSTEM    = UTC
MEAN_ELEMENT_THEORY = SGP/SGP4

EPOCH          = 2026-01-13T20:35:48.912000
MEAN_MOTION    = 15.21320669
ECCENTRICITY   = .00117267
INCLINATION    = 97.4115
RA_OF_ASC_NODE = 91.0685
ARG_OF_PERICENTER = 162.5626
MEAN_ANOMALY   = 197.6015

EPHEMERIS_TYPE = 0
CLASSIFICATION_TYPE = U
NORAD_CAT_ID   = 67293
ELEMENT_SET_NO = 999
REV_AT_EPOCH   = 248
BSTAR          = .12752605E-3
MEAN_MOTION_DOT = .2789E-4
MEAN_MOTION_DDOT = 0

CCSDS_OMM_VERS = 2.0
CREATION_DATE  = 
ORIGINATOR     = 

OBJECT_NAME    = SITRO-AIS-63
OBJECT_ID      = 2025-313AY
CENTER_NAME    = EARTH
REF_FRAME      = TEME
TIME_SYSTEM    = UTC
MEAN_ELEMENT_THEORY = SGP/SGP4

EPOCH          = 2026-01-13T11:05:30.789024
MEAN_MOTION    = 15.21208663
ECCENTRICITY   = .00073892
INCLINATION    = 97.4206
RA_OF_ASC_NODE = 90.6800
ARG_OF_PERICENTER = 157.0509
MEAN_ANOMALY   = 203.1058

EPHEMERIS_TYPE = 0
CLASSIFICATION_TYPE = U
NORAD_CAT_ID   = 67294
ELEMENT_SET_NO = 999
REV_AT_EPOCH   = 242
BSTAR          = -.11399082E+0
MEAN_MOTION_DOT = -.2267102E-1
MEAN_MOTION_DDOT = 0

CCSDS_OMM_VERS = 2.0
CREATION_DATE  = 
ORIGINATOR     = 

OBJECT_NAME    = ZORKIY-2M-5
OBJECT_ID      = 2025-313AZ
CENTER_NAME    = EARTH
REF_FRAME      = TEME
TIME_SYSTEM    = UTC
MEAN_ELEMENT_THEORY = SGP/SGP4

EPOCH          = 2026-01-13T20:33:42.093216
MEAN_MOTION    = 15.21536766
ECCENTRICITY   = .0011255
INCLINATION    = 97.4115
RA_OF_ASC_NODE = 91.0704
ARG_OF_PERICENTER = 162.3760
MEAN_ANOMALY   = 197.7869

EPHEMERIS_TYPE = 0
CLASSIFICATION_TYPE = U
NORAD_CAT_ID   = 67295
ELEMENT_SET_NO = 999
REV_AT_EPOCH   = 248
BSTAR          = .23015969E-3
MEAN_MOTION_DOT = .5123E-4
MEAN_MOTION_DDOT = 0

CCSDS_OMM_VERS = 2.0
CREATION_DATE  = 
ORIGINATOR     = 

OBJECT_NAME    = SITRO-AIS-62
OBJECT_ID      = 2025-313BA
CENTER_NAME    = EARTH
REF_FRAME      = TEME
TIME_SYSTEM    = UTC
MEAN_ELEMENT_THEORY = SGP/SGP4

EPOCH          = 2026-01-13T20:32:55.533984
MEAN_MOTION    = 15.21615060
ECCENTRICITY   = .0009491
INCLINATION    = 97.4127
RA_OF_ASC_NODE = 91.0758
ARG_OF_PERICENTER = 171.7155
MEAN_ANOMALY   = 188.4239

EPHEMERIS_TYPE = 0
CLASSIFICATION_TYPE = U
NORAD_CAT_ID   = 67296
ELEMENT_SET_NO = 999
REV_AT_EPOCH   = 248
BSTAR          = .25713814E-3
MEAN_MOTION_DOT = .5743E-4
MEAN_MOTION_DDOT = 0

