NASBSAT-2               
1 67285U 25313AP  26013.86002396  .00004949  00000+0  22450-3 0  9999
2 67285  97.4095  91.0544 0010807 175.4250 184.7087 15.21223328  2485
2025-313AQ              
1 67286U 25313AQ  26013.85950229  .00004405  00000+0  20002-3 0  9994
2 67286  97.4117  91.0683 0010517 171.5307 188.6109 15.21254666  2480
LUCA                    
1 67287U 25313AR  26013.85897393  .00005392  00000+0  24352-3 0  9995
2 67287  97.4117  91.0694 0010418 172.0522 188.0881 15.21341509  2482
2025-313AS              
1 67288U 25313AS  26013.85967473  .00003628  00000+0  16544-3 0  9997
2 67288  97.4104  91.0649 0012263 164.9426 195.2177 15.21206068  2480
NASBSAT-1               
1 67289U 25313AT  26013.85806071  .00007654  00000+0  34281-3 0  9995
2 67289  97.4118  91.0710 0010319 172.4553 187.6840 15.21491026  2482
SAKHACUBE-CHOLBON (RS-*)
1 67290U 25313AU  26013.85816656  .00005752  00000+0  25891-3 0  9991
2 67290  97.4117  91.0707 0010161 171.3820 188.7592 15.21429849  2489
QMR-KWT-2               
1 67291U 25313AV  26013.85777088  .00006339  00000+0  28451-3 0  9994
2 67291  97.4116  91.0712 0010055 171.3974 188.7436 15.21488027  2487
SITRO-AIS-64            
1 67292U 25313AW  26013.72564810  .00006363  00000+0  28529-3 0  9991
2 67292  97.4120  90.9436 0009816 171.5185 188.6219 15.21523767  2460
2025-313AX              
1 67293U 25313AX  26013.85820500  .00002789  00000+0  12753-3 0  9997
2 67293  97.4115  91.0685 0011726 162.5626 197.6015 15.21320669  2488
SITRO-AIS-63            
1 67294U 25313AY  26013.46216191 -.02267102  00000+0 -11399+0 0  9997
2 67294  97.4206  90.6800 0007389 157.0509 203.1058 15.21208663  2426
ZORKIY-2M-5             
1 67295U 25313AZ  26013.85673719  .00005123  00000+0  23016-3 0  9996
2 67295  97.4115  91.0704 0011255 162.3760 197.7869 15.21536766  2481
SITRO-AIS-62            
1 67296U 25313BA  26013.85619831  .00005743  00000+0  25714-3 0  9997
2 67296  97.4127  91.0758 0009491 171.7155 188.4239 15.21615060  2488
